NOAA 15                 
1 25338U 98030A   24357.53848940  .00000328  00000+0  15299-3 0  9994
2 25338  98.5526  20.6044 0011068 130.4526 229.7621 14.26831718384040
DMSP 5D-3 F16 (USA 172) 
1 28054U 03048A   24357.57544843  .00000323  00000+0  19301-3 0  9999
2 28054  99.0199   5.8349 0006548 236.8997 220.1601 14.14233693 92924
NOAA 18                 
1 28654U 05018A   24357.51985725  .00000391  00000+0  23123-3 0  9998
2 28654  98.8599  72.8035 0013372 247.3160 112.6599 14.13459666  9781
METEOSAT-9 (MSG-2)      
1 28912U 05049B   24331.84702219  .00000144  00000+0  00000+0 0  9993
2 28912   8.0635  59.4636 0001814 203.9464 153.5423  1.00276594  1313
EWS-G1 (GOES 13)        
1 29155U 06018A   24357.45986951  .00000033  00000+0  00000+0 0  9999
2 29155   3.1193  83.0329 0064716 257.4939 317.1793  0.98830424 37895
DMSP 5D-3 F17 (USA 191) 
1 29522U 06050A   24357.54537260  .00000346  00000+0  20224-3 0  9999
2 29522  98.7420   4.2428 0010405 157.7464 202.4163 14.14699382935828
FENGYUN 3A              
1 32958U 08026A   24357.41411557  .00000340  00000+0  18253-3 0  9990
2 32958  98.6291 299.3156 0007652 247.8928 112.1436 14.19313912858541
NOAA 19                 
1 33591U 09005A   24357.56989976  .00000327  00000+0  19859-3 0  9991
2 33591  99.0234  55.1473 0014617 119.7262 240.5366 14.13235558817977
GOES 14                 
1 35491U 09033A   24357.60830944 -.00000050  00000+0  00000+0 0  9996
2 35491   0.2770  91.0646 0002641 136.2641 334.9226  1.00274253  1163
DMSP 5D-3 F18 (USA 210) 
1 35951U 09057A   24357.52143606  .00000534  00000+0  30174-3 0  9991
2 35951  98.8392 330.6026 0011203 356.4729   3.6364 14.14432460783006
EWS-G2 (GOES 15)        
1 36411U 10008A   24357.58938309  .00000055  00000+0  00000+0 0  9998
2 36411   0.1118 270.3825 0006408 346.9421 107.8703  1.00271475 54206
COMS 1                  
1 36744U 10032A   24357.56797485 -.00000328  00000+0  00000+0 0  9994
2 36744   3.4275  82.4856 0000929 204.0062 137.7553  1.00272319 45650
FENGYUN 3B              
1 37214U 10059A   24357.58508014  .00000203  00000+0  12911-3 0  9995
2 37214  99.0365  28.1488 0021191 280.6914 230.9858 14.14645166730841
SUOMI NPP               
1 37849U 11061A   24357.58918025  .00000247  00000+0  13788-3 0  9991
2 37849  98.7420 292.8778 0002230  75.9704 284.1720 14.19521814681606
METEOSAT-10 (MSG-3)     
1 38552U 12035B   24357.28834184  .00000008  00000+0  00000+0 0  9999
2 38552   3.3969  61.8789 0001403 233.1911 260.0616  1.00271534 45421
METOP-B                 
1 38771U 12049A   24357.60104585  .00000286  00000+0  15044-3 0  9994
2 38771  98.6048  50.3577 0001795 110.2095 249.9275 14.21389069636321
INSAT-3D                
1 39216U 13038B   24357.56988103 -.00000322  00000+0  00000+0 0  9993
2 39216   0.5233  90.2396 0001821 168.8081 167.2399  1.00272744 41648
FENGYUN 3C              
1 39260U 13052A   24357.58276103  .00000243  00000+0  14303-3 0  9996
2 39260  98.4407 347.3256 0011773 139.0354 221.1707 14.16369366581939
METEOR-M 2              
1 40069U 14037A   24357.51725698  .00000309  00000+0  16096-3 0  9994
2 40069  98.4523 343.5055 0005999 160.2086 199.9326 14.21168854542372
HIMAWARI-8              
1 40267U 14060A   24357.57409289 -.00000259  00000+0  00000+0 0  9990
2 40267   0.0506 100.2873 0000599 184.9936 153.6637  1.00270654 37327
FENGYUN 2G              
1 40367U 14090A   24357.04770049 -.00000288  00000+0  00000+0 0  9993
2 40367   4.2596  79.3808 0001209 171.6874 316.6433  1.00277165 36564
METEOSAT-11 (MSG-4)     
1 40732U 15034A   24357.24415524  .00000077  00000+0  00000+0 0  9999
2 40732   1.8457  71.7046 0001865 167.1759 309.5429  1.00268477  1787
ELEKTRO-L 2             
1 41105U 15074A   24357.45388500 -.00000102  00000+0  00000+0 0  9994
2 41105   5.3225  77.1878 0004035 197.5207 325.7037  1.00271403 33079
INSAT-3DR               
1 41752U 16054A   24357.58382594 -.00000060  00000+0  00000+0 0  9995
2 41752   0.1233  93.4931 0014196 177.8551 104.4426  1.00271801 30389
HIMAWARI-9              
1 41836U 16064A   24357.57409291 -.00000258  00000+0  00000+0 0  9991
2 41836   0.0021  84.9519 0001007 197.4447 156.6449  1.00273095 29774
GOES 16                 
1 41866U 16071A   24357.19216127 -.00000232  00000+0  00000+0 0  9996
2 41866   0.0417 211.3656 0001684 107.5868 126.2676  1.00270702 29669
FENGYUN 4A              
1 41882U 16077A   24357.57271421 -.00000181  00000+0  00000+0 0  9993
2 41882   0.9391  85.7924 0010435 342.9981 315.2910  1.00277715 29496
CYGFM05                 
1 41884U 16078A   24357.57392892  .00018133  00000+0  53570-3 0  9991
2 41884  34.9604 182.7451 0008951 115.9746 244.1894 15.34022082444952
CYGFM04                 
1 41885U 16078B   24357.56857133  .00018859  00000+0  53689-3 0  9991
2 41885  34.9361 164.6889 0008124 132.9228 227.2172 15.35180678445064
CYGFM02                 
1 41886U 16078C   24357.60461943  .00019367  00000+0  53821-3 0  9990
2 41886  34.9441 166.0561 0010502 126.1379 234.0311 15.35907380445161
CYGFM01                 
1 41887U 16078D   24357.58493069  .00017769  00000+0  52964-3 0  9993
2 41887  34.9438 186.7549 0009428  97.1924 262.9865 15.33738371444883
CYGFM08                 
1 41888U 16078E   24357.60518540  .00018941  00000+0  54250-3 0  9992
2 41888  34.9467 172.9083 0010803 125.3217 234.8512 15.34967286445084
CYGFM07                 
1 41890U 16078G   24357.60229793  .00018801  00000+0  53159-3 0  9996
2 41890  34.9481 163.7381 0008634 141.9460 218.1869 15.35391744445086
CYGFM03                 
1 41891U 16078H   24357.58670541  .00018958  00000+0  53891-3 0  9991
2 41891  34.9438 165.2027 0007727 123.1838 236.9621 15.35229917445060
FENGYUN 3D              
1 43010U 17072A   24357.58515263  .00000261  00000+0  14563-3 0  9991
2 43010  98.9387 313.6012 0002025 129.7015 230.4339 14.19524815368140
NOAA 20 (JPSS-1)        
1 43013U 17073A   24357.53470952  .00000209  00000+0  11990-3 0  9998
2 43013  98.7262 292.4357 0002047  62.5114 297.6270 14.19522758367622
GOES 17                 
1 43226U 18022A   24357.61112766 -.00000073  00000+0  00000+0 0  9990
2 43226   0.0416 166.9514 0003472  97.3697 302.6466  1.00271890 24998
FENGYUN 2H              
1 43491U 18050A   24357.57271421 -.00000113  00000+0  00000+0 0  9999
2 43491   1.6324  85.4739 0001260 174.1866 117.4481  1.00272880 24007
METOP-C                 
1 43689U 18087A   24357.57182663  .00000278  00000+0  14707-3 0  9991
2 43689  98.7003  54.4073 0000282 237.5891 122.5259 14.21499340317889
GEO-KOMPSAT-2A          
1 43823U 18100A   24357.41448562 -.00000327  00000+0  00000+0 0  9996
2 43823   0.0463 150.2160 0000417 306.5546 272.1661  1.00272032 22197
METEOR-M2 2             
1 44387U 19038A   24357.53126569  .00000301  00000+0  15040-3 0  9991
2 44387  98.8535 327.7623 0002043 115.0465 245.0925 14.24095137284194
ARKTIKA-M 1             
1 47719U 21016A   24346.21013880  .00000144  00000+0  00000+0 0  9997
2 47719  63.1345 131.0499 7012162 268.4789  17.4348  2.00604149 27701
FENGYUN 3E              
1 49008U 21062A   24357.57985575  .00000069  00000+0  53029-4 0  9991
2 49008  98.7387 356.3995 0001395 168.9392 191.1815 14.19825112179727
GOES 18                 
1 51850U 22021A   24357.47757873  .00000114  00000+0  00000+0 0  9999
2 51850   0.0161 231.2259 0000520  91.2580 163.9535  1.00271288  1164
NOAA 21 (JPSS-2)        
1 54234U 22150A   24357.57231580  .00000259  00000+0  14362-3 0  9994
2 54234  98.7115 293.0423 0001019   8.9774 351.1420 14.19573599109706
METEOSAT-12 (MTG-I1)    
1 54743U 22170C   24357.38104837  .00000009  00000+0  00000+0 0  9997
2 54743   0.6019  38.6637 0001495 228.2636 321.3281  1.00271149  7543
TIANMU-1 03             
1 55973U 23039A   24357.57487036  .00016973  00000+0  60128-3 0  9992
2 55973  97.4826 148.0932 0003839 227.9787 132.1126 15.29177809 97572
TIANMU-1 04             
1 55974U 23039B   24357.60909067  .00016524  00000+0  58260-3 0  9996
2 55974  97.4753 147.5321 0004836 225.3230 134.7616 15.29336015 97579
TIANMU-1 05             
1 55975U 23039C   24357.60789165  .00016122  00000+0  57154-3 0  9997
2 55975  97.4799 147.9422 0003313 249.4952 110.5933 15.29167879 97566
TIANMU-1 06             
1 55976U 23039D   24357.56419118  .00017077  00000+0  60026-3 0  9993
2 55976  97.4813 148.1136 0003795 247.2386 112.8454 15.29432804 97566
METEOR-M2 3             
1 57166U 23091A   24357.57419628  .00000058  00000+0  44309-4 0  9999
2 57166  98.6886  50.3183 0003099 314.2044  45.8879 14.23962040 77434
TIANMU-1 07             
1 57399U 23101A   24357.60945632  .00009907  00000+0  44235-3 0  9991
2 57399  97.3384  49.7372 0003119 239.4700 120.6229 15.21552076 79035
TIANMU-1 08             
1 57400U 23101B   24357.57708893  .00010650  00000+0  47483-3 0  9991
2 57400  97.3372  49.5557 0005355 250.6496 109.4162 15.21576433 79022
TIANMU-1 09             
1 57401U 23101C   24357.56123355  .00010886  00000+0  48567-3 0  9990
2 57401  97.3327  49.2687 0005117 246.9140 113.1557 15.21547728 79029
TIANMU-1 10             
1 57402U 23101D   24357.59418556  .00010236  00000+0  45659-3 0  9992
2 57402  97.3407  49.7733 0007200 246.1490 113.8992 15.21561782 79027
FENGYUN 3F              
1 57490U 23111A   24357.59153084  .00000194  00000+0  11192-3 0  9999
2 57490  98.7500  64.8006 0000236 128.1542 231.9655 14.19960413 72002
ARKTIKA-M 2             
1 58584U 23198A   24356.91249923  .00000128  00000+0  00000+0 0  9991
2 58584  63.2371 213.9827 6910347 269.4481  17.9503  2.00615035  7442
TIANMU-1 11             
1 58645U 23205A   24357.58553955  .00008561  00000+0  41158-3 0  9997
2 58645  97.3891  18.1401 0012401 106.1191 254.1410 15.18981722 55077
TIANMU-1 12             
1 58646U 23205B   24357.53696065  .00009377  00000+0  45117-3 0  9998
2 58646  97.3877  17.9838 0010408  99.6196 260.6215 15.18947266 55057
TIANMU-1 13             
1 58647U 23205C   24357.56960985  .00008876  00000+0  42700-3 0  9995
2 58647  97.3905  18.0830 0010852  83.0894 277.1574 15.18963464 55058
TIANMU-1 14             
1 58648U 23205D   24357.55365039  .00009587  00000+0  46098-3 0  9998
2 58648  97.3831  17.7483 0011428  86.2019 274.0522 15.18954569 55056
TIANMU-1 19             
1 58660U 23208A   24357.59407776  .00012818  00000+0  60084-3 0  9996
2 58660  97.4196 105.9698 0007259  72.8115 287.3914 15.19796918 54737
TIANMU-1 20             
1 58661U 23208B   24357.53279914  .00012649  00000+0  57189-3 0  9996
2 58661  97.4130 106.0120 0010056  81.3640 278.8734 15.21023906 54755
TIANMU-1 21             
1 58662U 23208C   24357.52073000  .00014129  00000+0  61301-3 0  9990
2 58662  97.4170 106.6674 0009623  80.8409 279.3915 15.22411807 54787
TIANMU-1 22             
1 58663U 23208D   24357.59108933  .00012265  00000+0  57166-3 0  9995
2 58663  97.4189 106.0605 0005880  93.7491 266.4417 15.20011314 54748
TIANMU-1 15             
1 58700U 24004A   24357.54869650  .00009529  00000+0  45752-3 0  9994
2 58700  97.4598 175.7264 0010041 106.5305 253.7033 15.19024558 53328
TIANMU-1 16             
1 58701U 24004B   24357.59707363  .00010224  00000+0  49165-3 0  9998
2 58701  97.4527 175.4773 0010071 108.6723 251.5605 15.18949521 53330
TIANMU-1 17             
1 58702U 24004C   24357.58172915  .00010649  00000+0  51104-3 0  9994
2 58702  97.4569 175.6961 0008486 104.3584 255.8593 15.19021284 53323
TIANMU-1 18             
1 58703U 24004D   24357.56459209  .00009737  00000+0  46784-3 0  9991
2 58703  97.4587 175.7925 0008276  97.8534 262.3641 15.19005841 53321
INSAT-3DS               
1 58990U 24033A   24357.49424404 -.00000139  00000+0  00000+0 0  9997
2 58990   0.0293  93.7111 0001648 180.8323  76.9877  1.00271090 41631
METEOR-M2 4             
1 59051U 24039A   24357.60224500  .00000127  00000+0  76766-4 0  9993
2 59051  98.6260 315.1131 0006172 304.3125  55.7468 14.22315710 42278
GOES 19                 
1 60133U 24119A   24357.51577080 -.00000166  00000+0  00000+0 0  9996
2 60133   0.0412 198.0505 0001259 120.3543 229.3796  1.00272438  1539
